SAUDISAT 1C             
1 27607U 02058C   20073.74262329 -.00000024  00000-0  17297-4 0  9991
2 27607  64.5554 306.9987 0059824 201.5620 158.2963 14.75615297926737
SAUDISAT 2              
1 28371U 04025F   20073.80694294 -.00000035  00000-0  24492-5 0  9991
2 28371  98.2710  23.7301 0026555 126.4300 233.9349 14.54371593833273
SAUDISAT 3              
1 31118U 07012B   20073.87525689 -.00000018  00000-0  49509-5 0  9998
2 31118  97.8578  35.6562 0014100 312.1335  47.8673 14.69156698691883
PISAT                   
1 41784U 16059B   20073.71201540  .00000062  00000-0  21042-4 0  9998
2 41784  98.0316 132.7470 0030666 254.2967 105.4852 14.63494272184902
FLYING LAPTOP           
1 42831U 17042G   20073.90453422  .00000168  00000-0  22332-4 0  9994
2 42831  97.5351 320.2095 0012700 241.2173 118.7771 14.91095932145051
